[{"OBJECT_NAME":"STARLINK-30815","OBJECT_ID":"2023-166Q","EPOCH":"2026-03-09T17:19:20.073504","MEAN_MOTION":15.30184716,"ECCENTRICITY":8.987e-5,"INCLINATION":53.1597,"RA_OF_ASC_NODE":219.5075,"ARG_OF_PERICENTER":113.0004,"MEAN_ANOMALY":247.1092,"EPHEMERIS_TYPE":0,"CLASSIFICATION_TYPE":"U","NORAD_CAT_ID":58164,"ELEMENT_SET_NO":999,"REV_AT_EPOCH":13318,"BSTAR":5.153226e-6,"MEAN_MOTION_DOT":-2.06e-6,"MEAN_MOTION_DDOT":0},{"OBJECT_NAME":"OBJECT BC","OBJECT_ID":"2025-313BC","EPOCH":"2026-03-09T04:33:08.504064","MEAN_MOTION":15.29126358,"ECCENTRICITY":0.00084789,"INCLINATION":97.3985,"RA_OF_ASC_NODE":144.811,"ARG_OF_PERICENTER":328.9209,"MEAN_ANOMALY":31.1528,"EPHEMERIS_TYPE":0,"CLASSIFICATION_TYPE":"U","NORAD_CAT_ID":67298,"ELEMENT_SET_NO":999,"REV_AT_EPOCH":789,"BSTAR":0.0026410397,"MEAN_MOTION_DOT":0.00075331,"MEAN_MOTION_DDOT":0}]
