STARLINK-30815          
1 58164U 23166Q   26068.72176011 -.00000206  00000+0  51532-5 0  9998
2 58164  53.1597 219.5075 0000899 113.0004 247.1092 15.30184716133187
2025-313BC              
1 67298U 25313BC  26068.18968176  .00075331  00000+0  26410-2 0  9997
2 67298  97.3985 144.8110 0008478 328.9209  31.1528 15.29126358  7890
